[{"OBJECT_NAME":"TIANPING 2A","OBJECT_ID":"2022-032A","EPOCH":"2026-03-09T22:58:37.953408","MEAN_MOTION":14.9690979,"ECCENTRICITY":0.00109299,"INCLINATION":97.5994,"RA_OF_ASC_NODE":109.5163,"ARG_OF_PERICENTER":146.1091,"MEAN_ANOMALY":214.0831,"EPHEMERIS_TYPE":0,"CLASSIFICATION_TYPE":"U","NORAD_CAT_ID":52153,"ELEMENT_SET_NO":999,"REV_AT_EPOCH":21499,"BSTAR":3.4221979e-5,"MEAN_MOTION_DOT":3.37e-6,"MEAN_MOTION_DDOT":0},{"OBJECT_NAME":"STARLINK-34033","OBJECT_ID":"2025-102Z","EPOCH":"2026-03-09T13:28:47.296128","MEAN_MOTION":14.9833278,"ECCENTRICITY":0.0003568,"INCLINATION":70.001,"RA_OF_ASC_NODE":114.7526,"ARG_OF_PERICENTER":269.7941,"MEAN_ANOMALY":90.2809,"EPHEMERIS_TYPE":0,"CLASSIFICATION_TYPE":"U","NORAD_CAT_ID":64045,"ELEMENT_SET_NO":999,"REV_AT_EPOCH":4586,"BSTAR":0.00028142,"MEAN_MOTION_DOT":3.267e-5,"MEAN_MOTION_DDOT":0}]
